NORAD_CAT_ID,OBJECT_NAME,OBJECT_TYPE,EPOCH,MEAN_MOTION,ECCENTRICITY,INCLINATION,RA_OF_ASC_NODE,ARG_OF_PERICENTER,MEAN_ANOMALY,BSTAR,MEAN_MOTION_DOT,MEAN_MOTION_DDOT,TLE_LINE0,TLE_LINE1,TLE_LINE2,SEMIMAJOR_AXIS,PERIOD,APOGEE,PERIGEE,DECAYED
54764.0,STARLINK-5458,PAYLOAD,2023-02-26 20:31:56,15.08846939,0.0001126,53.2179,332.9609,84.4467,275.6654,0.00020808,3.026e-05,0.0,0 STARLINK-5458,1 54764U 22175G   23057.85551080  .00003026  00000-0  20808-3 0  9994,2 54764  53.2179 332.9609 0001126  84.4467 275.6654 15.08846939 10661,6917.859,95.437,540.503,538.945,0.0
54764.0,STARLINK-5458,PAYLOAD,2023-02-27 01:18:04,15.08860125,9.6e-05,53.2183,332.067,88.9692,271.141,0.00028576,4.265e-05,0.0,0 STARLINK-5458,1 54764U 22175G   23058.05421979  .00004265  00000-0  28576-3 0  9996,2 54764  53.2183 332.0670 0000960  88.9692 271.1410 15.08860125 10696,6917.819,95.436,540.348,539.02,0.0
54764.0,STARLINK-5458,PAYLOAD,2023-02-27 20:22:42,15.08830659,0.0001007,53.2167,328.5016,96.7868,263.3239,0.0005977,9.235e-05,0.0,0 STARLINK-5458,1 54764U 22175G   23058.84910375  .00009235  00000-0  59770-3 0  9998,2 54764  53.2167 328.5016 0001007  96.7868 263.3239 15.08830659 12971,6917.909,95.438,540.471,539.077,0.0
54764.0,STARLINK-5458,PAYLOAD,2023-02-28 02:44:13,15.08870292,7.5e-05,53.2163,327.3111,91.391,268.7168,0.00020654,3.004e-05,0.0,0 STARLINK-5458,1 54764U 22175G   23059.11404765  .00003004  00000-0  20654-3 0  9997,2 54764  53.2163 327.3111 0000750  91.3910 268.7168 15.08870292 10855,6917.788,95.436,540.172,539.134,0.0
54764.0,STARLINK-5458,PAYLOAD,2023-02-28 21:48:55,15.08801331,0.0001799,53.2178,323.7385,90.4147,269.7051,-0.00076371,-0.00012409,0.0,0 STARLINK-5458,1 54764U 22175G   23059.90897304 -.00012409  00000-0 -76371-3 0  9997,2 54764  53.2178 323.7385 0001799  90.4147 269.7051 15.08801331 13134,6917.999,95.44,541.108,538.619,0.0
54764.0,STARLINK-5458,PAYLOAD,2023-02-28 23:24:18,15.08796144,0.0001406,53.2177,323.4421,96.6608,263.4544,-0.00074534,-0.00012116,0.0,0 STARLINK-5458,1 54764U 22175G   23059.97521606 -.00012116  00000-0 -74534-3 0  9997,2 54764  53.2177 323.4421 0001406  96.6608 263.4544 15.08796144 10989,6918.014,95.44,540.852,538.907,0.0
54764.0,STARLINK-5458,PAYLOAD,2023-03-01 05:45:50,15.08829988,0.0001318,53.2174,322.2536,88.1712,271.9431,-9.1584e-05,-1.745e-05,0.0,0 STARLINK-5458,1 54764U 22175G   23060.24016539 -.00001745  00000-0 -91584-4 0  9994,2 54764  53.2174 322.2536 0001318  88.1712 271.9431 15.08829988 11022,6917.911,95.438,540.688,538.864,0.0
54764.0,STARLINK-5458,PAYLOAD,2023-03-01 21:39:40,15.08850274,0.000127,53.2167,319.2808,91.6945,268.4193,0.00012303,1.671e-05,0.0,0 STARLINK-5458,1 54764U 22175G   23060.90255383  .00001671  00000-0  12303-3 0  9996,2 54764  53.2167 319.2808 0001270  91.6945 268.4193 15.08850274 13284,6917.849,95.437,540.593,538.835,0.0
54764.0,STARLINK-5458,PAYLOAD,2023-03-02 02:25:50,15.08854022,0.0001368,53.2165,318.3863,98.0884,262.0264,0.00029602,4.428e-05,0.0,0 STARLINK-5458,1 54764U 22175G   23061.10127749  .00004428  00000-0  29602-3 0  9996,2 54764  53.2165 318.3863 0001368  98.0884 262.0264 15.08854022 11152,6917.838,95.437,540.649,538.756,0.0
54764.0,STARLINK-5458,PAYLOAD,2023-03-02 18:19:43,15.0882415,0.0001181,53.2177,315.4153,102.9323,257.1801,0.00053061,8.163e-05,0.0,0 STARLINK-5458,1 54764U 22175G   23061.76369869  .00008163  00000-0  53061-3 0  9995,2 54764  53.2177 315.4153 0001181 102.9323 257.1801 15.08824150 13413,6917.929,95.439,540.611,538.977,0.0
54764.0,STARLINK-5458,PAYLOAD,2023-03-03 02:16:38,15.08836221,0.0001348,53.2163,313.9271,108.1034,252.0105,0.0005374,8.274e-05,0.0,0 STARLINK-5458,1 54764U 22175G   23062.09489476  .00008274  00000-0  53740-3 0  9996,2 54764  53.2163 313.9271 0001348 108.1034 252.0105 15.08836221 11303,6917.892,95.438,540.689,538.824,0.0
54764.0,STARLINK-5458,PAYLOAD,2023-03-03 21:21:14,15.0886694,0.0001298,53.2167,310.3592,90.4614,269.6527,8.5565e-05,1.075e-05,0.0,0 STARLINK-5458,1 54764U 22175G   23062.88975313  .00001075  00000-0  85565-4 0  9996,2 54764  53.2167 310.3592 0001298  90.4614 269.6527 15.08866940 11421,6917.798,95.436,540.561,538.765,0.0
54764.0,STARLINK-5458,PAYLOAD,2023-03-04 02:07:23,15.0886924,0.0001314,53.2156,309.4652,100.4628,259.6512,0.00025289,3.742e-05,0.0,0 STARLINK-5458,1 54764U 22175G   23063.08846979  .00003742  00000-0  25289-3 0  9993,2 54764  53.2156 309.4652 0001314 100.4628 259.6512 15.08869240 13613,6917.791,95.436,540.565,538.747,0.0
54764.0,STARLINK-5458,PAYLOAD,2023-03-04 22:47:25,15.08832738,9.52e-05,53.2163,305.602,106.7753,253.3344,-0.00018137,-3.172e-05,0.0,0 STARLINK-5458,1 54764U 22175G   23063.94960445 -.00003172  00000-0 -18137-3 0  9996,2 54764  53.2163 305.6020 0000952 106.7753 253.3344 15.08832738 11583,6917.903,95.438,540.426,539.109,0.0
54764.0,STARLINK-5458,PAYLOAD,2023-03-05 01:58:12,15.08835673,0.000108,53.216,305.0058,103.1512,256.9601,-6.9278e-05,-1.39e-05,0.0,0 STARLINK-5458,1 54764U 22175G   23064.08208413 -.00001390  00000-0 -69278-4 0  9995,2 54764  53.2160 305.0058 0001080 103.1512 256.9601 15.08835673 13760,6917.894,95.438,540.506,539.011,0.0
54764.0,STARLINK-5458,PAYLOAD,2023-03-05 22:38:13,15.08847794,9.74e-05,53.2165,301.1405,104.4844,255.6256,0.0010332,0.00016197,0.0,0 STARLINK-5458,1 54764U 22175G   23064.94320892  .00016197  00000-0  10332-2 0  9990,2 54764  53.2165 301.1405 0000974 104.4844 255.6256 15.08847794 13894,6917.857,95.437,540.395,539.048,0.0
54764.0,STARLINK-5458,PAYLOAD,2023-03-06 01:48:59,15.08852339,0.0001012,53.2167,300.5461,106.8667,253.2437,0.0011625,0.00018268,0.0,0 STARLINK-5458,1 54764U 22175G   23065.07568812  .00018268  00000-0  11625-2 0  9998,2 54764  53.2167 300.5461 0001012 106.8667 253.2437 15.08852339 11753,6917.843,95.437,540.408,539.008,0.0
54764.0,STARLINK-5458,PAYLOAD,2023-03-06 16:07:27,15.08840317,0.000141,53.2157,297.869,109.7354,250.3791,0.00024743,3.652e-05,0.0,0 STARLINK-5458,1 54764U 22175G   23065.67185098  .00003652  00000-0  24743-3 0  9992,2 54764  53.2157 297.8690 0001410 109.7354 250.3791 15.08840317 11845,6917.879,95.438,540.72,538.769,0.0
54764.0,STARLINK-5458,PAYLOAD,2023-03-07 15:58:15,15.08844923,0.0001391,53.2159,293.4096,90.9259,269.1892,0.00028347,4.227e-05,0.0,0 STARLINK-5458,1 54764U 22175G   23066.66545168  .00004227  00000-0  28347-3 0  9993,2 54764  53.2159 293.4096 0001391  90.9259 269.1892 15.08844923 14156,6917.865,95.437,540.693,538.768,0.0
54764.0,STARLINK-5458,PAYLOAD,2023-03-07 23:55:10,15.08851473,0.0001227,53.2157,291.9224,86.3933,273.7199,0.00063993,9.914e-05,0.0,0 STARLINK-5458,1 54764U 22175G   23066.99664878  .00009914  00000-0  63993-3 0  9993,2 54764  53.2157 291.9224 0001227  86.3933 273.7199 15.08851473 12041,6917.845,95.437,540.559,538.862,0.0
54764.0,STARLINK-5458,PAYLOAD,2023-03-08 23:45:57,15.08845271,0.00011,53.2148,287.4622,88.9875,271.1243,0.00050028,7.684e-05,0.0,0 STARLINK-5458,1 54764U 22175G   23067.99025293  .00007684  00000-0  50028-3 0  9993,2 54764  53.2148 287.4622 0001100  88.9875 271.1243 15.08845271 12193,6917.864,95.437,540.49,538.968,0.0
54764.0,STARLINK-5458,PAYLOAD,2023-03-09 22:01:21,15.08855893,9.64e-05,53.2161,283.2985,84.6128,275.4974,0.00089507,0.00013992,0.0,0 STARLINK-5458,1 54764U 22175G   23068.91760905  .00013992  00000-0  89507-3 0  9995,2 54764  53.2161 283.2985 0000964  84.6128 275.4974 15.08855893 14499,6917.832,95.437,540.364,539.03,0.0
54764.0,STARLINK-5458,PAYLOAD,2023-03-09 23:36:44,15.08858522,9.68e-05,53.2161,283.0005,84.4287,275.6816,0.00096762,0.00015153,0.0,0 STARLINK-5458,1 54764U 22175G   23068.98384829  .00015153  00000-0  96762-3 0  9991,2 54764  53.2161 283.0005 0000968  84.4287 275.6816 15.08858522 12349,6917.824,95.436,540.358,539.019,0.0
54764.0,STARLINK-5458,PAYLOAD,2023-03-10 07:33:40,15.08836875,0.0001468,53.2164,281.5137,76.4203,283.6952,0.00010404,1.368e-05,0.0,0 STARLINK-5458,1 54764U 22175G   23069.31505613  .00001368  00000-0  10404-3 0  9997,2 54764  53.2164 281.5137 0001468  76.4203 283.6952 15.08836875 12398,6917.89,95.438,540.77,538.739,0.0
54764.0,STARLINK-5458,PAYLOAD,2023-03-10 20:16:46,15.08833431,0.0001254,53.2169,279.1339,81.9813,278.1322,2.8255e-05,1.62e-06,0.0,0 STARLINK-5458,1 54764U 22175G   23069.84497815  .00000162  00000-0  28255-4 0  9994,2 54764  53.2169 279.1339 0001254  81.9813 278.1322 15.08833431 14635,6917.9,95.438,540.633,538.898,0.0
54764.0,STARLINK-5458,PAYLOAD,2023-03-11 13:46:00,15.08841915,0.000127,53.2162,275.863,72.832,287.2811,0.00018586,2.671e-05,0.0,0 STARLINK-5458,1 54764U 22175G   23070.57361891  .00002671  00000-0  18586-3 0  9992,2 54764  53.2162 275.8630 0001270  72.8320 287.2811 15.08841915 14747,6917.875,95.437,540.618,538.861,0.0
54764.0,STARLINK-5458,PAYLOAD,2023-03-11 16:56:46,15.08845301,0.0001296,53.2158,275.2698,69.2241,290.889,0.00025362,3.751e-05,0.0,0 STARLINK-5458,1 54764U 22175G   23070.70609773  .00003751  00000-0  25362-3 0  9991,2 54764  53.2158 275.2698 0001296  69.2241 290.8890 15.08845301 14762,6917.864,95.437,540.626,538.833,0.0
54764.0,STARLINK-5458,PAYLOAD,2023-03-12 13:36:47,15.0884457,0.0001099,53.2162,271.402,81.0726,279.039,0.0002392,3.522e-05,0.0,0 STARLINK-5458,1 54764U 22175G   23071.56721722  .00003522  00000-0  23920-3 0  9999,2 54764  53.2162 271.4020 0001099  81.0726 279.0390 15.08844570 14890,6917.866,95.437,540.492,538.971,0.0
54764.0,STARLINK-5458,PAYLOAD,2023-03-12 21:33:43,15.08848824,0.0001302,53.2154,269.9164,81.0407,279.0733,0.00023459,3.448e-05,0.0,0 STARLINK-5458,1 54764U 22175G   23071.89841481  .00003448  00000-0  23459-3 0  9994,2 54764  53.2154 269.9164 0001302  81.0407 279.0733 15.08848824 14948,6917.853,95.437,540.619,538.818,0.0
54764.0,STARLINK-5458,PAYLOAD,2023-03-12 23:09:06,15.08849701,0.0001252,53.215,269.6185,81.0817,279.0317,0.00024353,3.591e-05,0.0,0 STARLINK-5458,1 54764U 22175G   23071.96465399  .00003591  00000-0  24353-3 0  9995,2 54764  53.2150 269.6185 0001252  81.0817 279.0317 15.08849701 12797,6917.851,95.437,540.582,538.85,0.0
